HIMAWARI-8              
1 40267U 14060A   24059.63156951 -.00000267  00000+0  00000+0 0  9990
2 40267   0.0267 197.2206 0000892 147.0304 181.7149  1.00272457 34344
